#aV2016  2 29  0  0  0.00000000     288 DD+AD WGS84 FIT  NGA
## 1886  86400.00000000   300.00000000 57447 0.0000000000000
+   30     1  2  3  5  6  7  8  9 10 11 12 13 14 15 16 17 18
+         19 20 21 22 23 24 25 26 27 28 29 30 31  0  0  0  0
+          0  0  0  0  0  0  0  0  0  0  0  0  0  0  0  0  0
+          0  0  0  0  0  0  0  0  0  0  0  0  0  0  0  0  0
+          0  0  0  0  0  0  0  0  0  0  0  0  0  0  0  0  0
++         2  2  2  2  2  2  2  2  2  2  2  2  2  2  2  2  2
++         2  2  2  2  2  2  2  2  2  2  2  2  2  0  0  0  0
++         0  0  0  0  0  0  0  0  0  0  0  0  0  0  0  0  0
++         0  0  0  0  0  0  0  0  0  0  0  0  0  0  0  0  0
++         0  0  0  0  0  0  0  0  0  0  0  0  0  0  0  0  0
%c cc cc ccc ccc cccc cccc cccc cccc ccccc ccccc ccccc ccccc
%c cc cc ccc ccc cccc cccc cccc cccc ccccc ccccc ccccc ccccc
%f  0.0000000  0.000000000  0.00000000000  0.000000000000000
%f  0.0000000  0.000000000  0.00000000000  0.000000000000000
%i    0    0    0    0      0      0      0      0         0
%i    0    0    0    0      0      0      0      0         0
/*      NGA, ST. LOUIS,MO.                                  
/*   EPHEMERIS COMPUTED FROM 2 DAYS OF DATA                 
/*   EPOCHA v2.4 SMOOTHER                                   
/*   G1762 IERS2010 SATAF SATAPC                            
*  2016  2 29 18 30  0.00000000
P  1 -21923.979914 -12579.080627   8441.056383     13.077463                    
V  1  -6220.431159  -9081.782389 -29217.801651      0.010432                    
P  2  11252.567235  21284.795739  12087.065610    599.425031                    
V  2 -12614.792720  -7700.000486  25819.169780     -0.001681                    
P  3 -14288.147431  -5631.770346  21670.581058    -30.600298                    
V  3   6385.238185 -26768.672616  -2758.720421     -0.045739                    
P  5   4114.214228  23065.164278 -12392.111925   -141.696768                    
V  5  -6076.555935  14777.667075  25823.416531      0.033577                    
P  6  -2308.593822  17031.648600  20261.044831    153.208481                    
V  6 -19546.666642 -16706.171075  11816.689644      0.059211                    
P  7 -17994.138642   1227.191729 -19497.558991    467.428902                    
V  7 -17126.313304 -18098.256475  14186.104647     -0.017491                    
P  8 -16705.082620  -8465.435845 -18784.532329    -25.744184                    
V  8  22431.936099  -8542.794218 -16028.464280     -0.014679                    
P  9 -25359.710567   7914.026331    113.271930     80.615626                    
V  9   -739.514368  -2901.120900  31624.076494      0.076224                    
P 10  10854.788724 -22855.488908  -7973.761150     36.191378                    
V 10    410.080805  10501.623896 -29556.413740     -0.064753                    
P 11 -24115.730809 -11143.708700  -1618.192466   -634.610435                    
V 11   3126.695861  -3876.900043 -30122.658221     -0.017808                    
P 12  11669.698613  10341.935365  21422.348629    370.493992                    
V 12  -7819.963671  26214.656112  -8136.272018      0.016152                    
P 13   8075.116681  13454.899809 -21553.412211     -0.036584                    
V 13 -26460.690114   5521.470231  -6594.994114     -0.029188                    
P 14  16358.492022 -14522.646090  15210.222452      0.182113                    
V 14  18892.827438  -2248.467620 -22989.053879     -0.022246                    
P 15  20736.891424   5096.802548 -16130.942707   -299.533956                    
V 15 -18167.999335   9119.727723 -20288.212761     -0.018010                    
P 16  -1532.005977 -23216.658679 -12524.449129    -35.844980                    
V 16   6305.970196 -14660.776407  26971.018397      0.030211                    
P 17 -17305.819500  14443.829605  14218.925758   -201.391075                    
V 17 -17446.643137   2619.545006 -24650.435209     -0.004947                    
P 18  15251.797752 -13477.119058 -16401.100574    488.697211                    
V 18  -1567.227867  22154.668258 -19327.306479      0.039814                    
P 19  -7767.574711  15531.027865  19981.636035   -525.044534                    
V 19 -25366.130679   4400.654386 -12754.223637     -0.002340                    
P 20  14264.350094   9246.632290 -20554.029968    396.182033                    
V 20  -4725.679235  25481.400882   8300.325635      0.025924                    
P 21  15907.488695  -5479.953093 -19873.038134   -512.765149                    
V 21  19421.965240  18687.095847   9750.484110     -0.017445                    
P 22  -4072.840864 -23695.013000  11375.985858    389.247097                    
V 22   6128.504596 -13288.070013 -26174.943394     -0.062768                    
P 23 -24574.979103   -544.330638  10779.050247   -162.440416                    
V 23  11985.368765  -6286.083613  27022.352065     -0.018305                    
P 24  21845.788044  14291.470245   5374.951144    -13.190298                    
V 24   3202.127596   6727.760017 -30411.772428     -0.005894                    
P 25  15427.492377  -3538.330667  21184.081481   -125.789577                    
V 25  -5397.765315  26608.553915   8518.289723     -0.068269                    
P 26   4196.922561 -26108.394814  -2227.987371   -274.377246                    
V 26   3389.898699  -2151.159524  31616.449465     -0.151815                    
P 27  -6022.045187 -13828.865690 -21888.783164     67.514804                    
V 27  26417.382994  -8350.709258  -1843.268547      0.036627                    
P 28 -12161.049860  22022.168894  -7804.318795    505.862613                    
V 28   1314.000729 -10863.371833 -30318.278747      0.026988                    
P 29  26000.502499  -4356.163768   3042.744297    655.109685                    
V 29  -3159.594372   3206.779709  31811.434649      0.006181                    
P 30 -10581.577277  11193.554797 -21642.813831    101.832486                    
V 30 -18903.241466 -19964.709530  -1164.983766      0.041068                    
P 31    812.173698 -17963.009693  19530.187272    280.471438                    
V 31  18407.116520  16450.698851  14801.441460     -0.017045                    
EOF
